{
  "norad_id": 64115,
  "name": "STARLINK-34067",
  "history": [
    {
      "epoch": "2026-03-28T21:07:09.831360",
      "apogee_km": 475.9338628240175,
      "perigee_km": 474.54797274148405,
      "latitude_deg": 28.50068500635236,
      "longitude_deg": -44.02240959997289,
      "semi_major_axis_km": 6853.377917782751,
      "eccentricity": 0.00010111,
      "inclination_deg": 53.1591,
      "raan_deg": 297.4065,
      "arg_perigee_deg": 65.159,
      "mean_anomaly_deg": 294.9516,
      "mean_motion_rev_day": 15.30191343
    }
  ]
}